[{"OBJECT_NAME":"KAZSTSAT","OBJECT_ID":"2018-099AB","EPOCH":"2026-03-09T14:51:18.118944","MEAN_MOTION":14.99620503,"ECCENTRICITY":0.0006528,"INCLINATION":97.4396,"RA_OF_ASC_NODE":105.0128,"ARG_OF_PERICENTER":11.1145,"MEAN_ANOMALY":349.0222,"EPHEMERIS_TYPE":0,"CLASSIFICATION_TYPE":"U","NORAD_CAT_ID":43783,"ELEMENT_SET_NO":999,"REV_AT_EPOCH":39638,"BSTAR":0.00011446,"MEAN_MOTION_DOT":1.354e-5,"MEAN_MOTION_DDOT":0},{"OBJECT_NAME":"STARLINK-5823","OBJECT_ID":"2023-028AX","EPOCH":"2026-03-09T18:03:41.337792","MEAN_MOTION":14.98328941,"ECCENTRICITY":0.00024574,"INCLINATION":70.0009,"RA_OF_ASC_NODE":204.375,"ARG_OF_PERICENTER":270.7505,"MEAN_ANOMALY":89.3373,"EPHEMERIS_TYPE":0,"CLASSIFICATION_TYPE":"U","NORAD_CAT_ID":55786,"ELEMENT_SET_NO":999,"REV_AT_EPOCH":16703,"BSTAR":1.112653e-6,"MEAN_MOTION_DOT":-8.0e-7,"MEAN_MOTION_DDOT":0}]
